STARLINK-6370           
1 57373U 23099AX  26068.50461151 -.00000350  00000+0 -10825-4 0  9992
2 57373  43.0023 237.3724 0000967 243.7465 116.3278 15.02544988146230
QPS-SAR-11 (YAMATSUMI-I)
1 64340U 25125A   26068.25519236  .00007204  00000+0  57385-3 0  9990
2 64340  42.0098  22.3823 0010044 210.0400 149.9850 15.00627459 40603
